OSCAR 3 (OSCAR III)     
1 01293U 65016F   09143.23305976  .00000029  00000-0  51675-4 0  5293
2 01293  70.0689 225.3419 0019527 207.5544 152.4522 14.04707174256306
OSCAR 5 (AO-5)          
1 04321U 70008B   09142.96160697 -.00000031  00000-0  10000-3 0  1660
2 04321 102.1326 153.6089 0027941  27.8917 332.3643 12.52156437797605
OSCAR 6 (AO-6)          
1 06236U 72082B   09143.88533902 -.00000027  00000-0  10000-3 0  1537
2 06236 101.3933 158.2462 0003819 302.9432  57.1274 12.53077250674365
OSCAR 7 (AO-7)          
1 07530U 74089B   09142.63050531 -.00000027  00000-0  10000-3 0  4845
2 07530 101.4284 168.2447 0011635 319.6408  40.3797 12.53575765579519
OSCAR 8 (AO-8)          
1 10703U 78026B   09142.88031921 -.00000261  00000-0 -15185-3 0  4980
2 10703  98.8288 189.0003 0006204 238.3553 121.7006 13.98837211592486
PHASE 3B (AO-10)        
1 14129U 83058B   09140.03333121 -.00000319  00000-0  10000-3 0  6592
2 14129  25.9085 156.1282 6000553 223.9357  68.6062  2.05872799167071
UOSAT 2 (UO-11)         
1 14781U 84021B   09142.78882298 -.00000059  00000-0 -61259-6 0  9685
2 14781  98.1085 187.0394 0009980  62.6870 297.5323 14.79711678354072
JAS-1 (FO-12)           
1 16909U 86061B   09143.42852748 -.00000083  00000-0  10000-3 0  5580
2 16909  50.0163 238.0036 0011433 142.4103 217.7532 12.44452809 35892
UOSAT 3 (UO-14)         
1 20437U 90005B   09143.17556045 -.00000003  00000-0  14547-4 0  9281
2 20437  98.3395 102.3460 0009694 244.7078 115.3104 14.31544194  9472
UOSAT 4 (UO-15)         
1 20438U 90005C   09142.95213225  .00000009  00000-0  19631-4 0  4208
2 20438  98.3981  95.0890 0008959 275.2027  84.8129 14.30444665  8865
PACSAT (AO-16)          
1 20439U 90005D   09142.83712708  .00000028  00000-0  25739-4 0  6104
2 20439  98.2759 112.3947 0009941 246.5662 113.4479 14.31824577  9528
DOVE (DO-17)            
1 20440U 90005E   09142.98301400  .00000008  00000-0  18055-4 0  3237
2 20440  98.2511 117.3175 0010037 240.3449 119.6733 14.32127892  9682
WEBERSAT (WO-18)        
1 20441U 90005F   09143.05196497  .00000021  00000-0  23316-4 0  8321
2 20441  98.2589 116.0344 0010621 243.2315 116.7787 14.31892551  9626
LUSAT (LO-19)           
1 20442U 90005G   09142.40916619 -.00000043  00000-0 -77639-6 0  5306
2 20442  98.2400 119.3496 0011050 241.2040 118.8045 14.32060005  9625
JAS-1B (FO-20)          
1 20480U 90013C   09142.84530839 -.00000027  00000-0  16628-4 0  1486
2 20480  99.0692  68.2410 0539913 227.6730 127.7422 12.83360926903657
INFORMATOR 1 & RS-14    
1 21087U 91006A   09143.28545097  .00000027  00000-0  12630-4 0  2786
2 21087  82.9419  64.4719 0035499 356.4487   3.6411 13.75043578918995
COSMOS 2123 & RS-12/13  
1 21089U 91007A   09143.43898673  .00000030  00000-0  15242-4 0  1591
2 21089  82.9196 285.0005 0030547  40.4192 319.9222 13.74486501917796
UOSAT 5 (UO-22)         
1 21575U 91050B   09143.85849939 -.00000075  00000-0 -10119-4 0  5555
2 21575  98.4436  93.1177 0008440  91.4942 268.7508 14.39673918937207
KITSAT 1 (KO-23)        
1 22077U 92052B   09143.41891432 -.00000037  00000-0  10000-3 0  7538
2 22077  66.0868  18.5264 0014739 285.7476  74.1917 12.86448195788339
ARASENE (AO-24)         
1 22654U 93031B   09138.90361133 -.00000086  00000-0  10000-3 0  2635
2 22654   5.0908 338.0127 2871730 158.9882 215.4931  1.42205571 78700
EYESAT-1 (AO-27)        
1 22825U 93061C   09143.15346326 -.00000004  00000-0  15004-4 0  2481
2 22825  98.4337  97.3669 0008220 345.0495  15.0441 14.29265947816332
ITAMSAT (IO-26)         
1 22826U 93061D   09142.65811578  .00000006  00000-0  19077-4 0  9754
2 22826  98.4271  97.6467 0008806 342.0477  18.0391 14.29517699816360
KITSAT 2 (KO-25)        
1 22828U 93061F   09143.18758332  .00000002  00000-0  17224-4 0  1832
2 22828  98.4195  98.0709 0009302 312.7985  47.2421 14.29817904784714
POSAT (PO-28)           
1 22829U 93061G   09142.82849705  .00000032  00000-0  28632-4 0  2208
2 22829  98.4143  98.8548 0008958 309.3742  50.6653 14.30216321816670
RADIO ROSTO (RS-15)     
1 23439U 94085A   09142.88004189 -.00000039  00000-0  10000-3 0  2306
2 23439  64.8177 305.7419 0147781  56.6554 304.8419 11.27553535593265
JAS-2 (FO-29)           
1 24278U 96046B   09142.93374706 -.00000003  00000-0  30889-4 0   484
2 24278  98.5587  20.3620 0351301  55.9031 307.4929 13.52943828630330
UNAMSAT-2 (MO-30)       
1 24305U 96052B   09143.11796519  .00000026  00000-0  11726-4 0  1229
2 24305  82.9372  12.5846 0029501 327.3313  32.6025 13.73570287637234
TMSAT-1 (TO-31)         
1 25396U 98043C   09143.68307725  .00000126  00000-0  72866-4 0  4092
2 25396  98.3334 172.9281 0001939 324.0330  36.0721 14.23778138564811
TECHSAT 1B (GO-32)      
1 25397U 98043D   09143.25446305  .00000014  00000-0  24199-4 0  8999
2 25397  98.3277 166.9296 0001000  14.1385 345.9825 14.23158848564584
SEDSAT 1 (SO-33)        
1 25509U 98061B   09143.52260629  .00000023  00000-0 -69986-5 0  4594
2 25509  31.4291 191.9587 0354073 122.9134 240.6026 14.28251539552302
PAN SAT (PO-34)         
1 25520U 98064B   09142.93333765  .00000372  00000-0  85095-5 0  2522
2 25520  28.4593  63.9704 0005007  29.4250 330.6608 15.17338212584815
ISS (ZARYA)             
1 25544U 98067A   09143.85131362  .00012822  00000-0  96085-4 0  9072
2 25544  51.6398  71.7474 0009780  36.1921   7.1411 15.73009967602122
SUNSAT (SO-35)          
1 25636U 99008C   09143.09893249  .00000026  00000-0  15171-4 0  3136
2 25636  96.4487 333.2142 0146979 301.8125  56.8838 14.43463310539482
UOSAT 12 (UO-36)        
1 25693U 99021A   09142.64167470 -.00000187  00000-0 -63097-5 0  9175
2 25693  64.5574 194.3223 0007739 206.1198 153.9527 14.78748145544065
OPAL (OO-38)            
1 26063U 00004C   09143.41473019 -.00000002  00000-0  19560-4 0  5126
2 26063 100.2074 285.4476 0036710 331.6979  28.2211 14.35863888488396
SAUDISAT 1A (SO-41)     
1 26545U 00057A   09143.22728239 -.00000134  00000-0  22539-5 0  2567
2 26545  64.5569 194.4818 0056488 282.5250  76.9540 14.80583999467508
TIUNGSAT-1 (MO-46)      
1 26548U 00057D   09143.50331133  .00000048  00000-0  24109-4 0  3988
2 26548  64.5546 157.1297 0051856 276.4309  83.0894 14.83363586468293
SAUDISAT 1B (SO-42)     
1 26549U 00057E   09142.76481288 -.00000126  00000-0  33320-5 0  3381
2 26549  64.5583 212.4113 0059846 286.1607  73.2932 14.79440234467107
PHASE 3D (AO-40)        
1 26609U 00072B   09142.99820223 -.00000286  00000-0  10000-3 0  2313
2 26609   9.4443  17.8752 7963879 206.7599  66.0714  1.25585727 39318
PCSAT (NO-44)           
1 26931U 01043C   09143.02792391  .00000191  00000-0  10697-3 0  1741
2 26931  67.0501 129.1609 0005542 270.2780  89.7658 14.29557979398980
SAPPHIRE (NO-45)        
1 26932U 01043D   09143.48205851 -.00000079  00000-0  13071-5 0  1783
2 26932  67.0520 127.9399 0004280 251.2223 108.8414 14.29608697399093
IDEFIX & ARIANE 42P R/B 
1 27422U 02021B   09143.02525551  .00000098  00000-0  56291-4 0   506
2 27422  98.5209 222.8569 0011780 300.5969  59.4048 14.28493736365815
RUBIN-2 & SAFIR-M       
1 27605U 02058A   09143.07649797 -.00000162  00000-0 -27526-5 0  9113
2 27605  64.5575  88.5568 0069926 212.1033 147.5755 14.72400332345246
SAUDISAT 1C (SO-50)     
1 27607U 02058C   09143.24506684 -.00000041  00000-0  15733-4 0  8919
2 27607  64.5580 100.8410 0069942 211.3724 148.3191 14.71436747345009
DTUSAT                  
1 27842U 03031C   09142.96957056  .00000032  00000-0  35006-4 0  5600
2 27842  98.7051 153.4686 0008819 191.8926 168.2047 14.20979879305765
CUTE-1 (CO-55)          
1 27844U 03031E   09143.05975855  .00000045  00000-0  41013-4 0  5845
2 27844  98.7120 152.5808 0009107 213.4474 146.6126 14.20638240305694
AAU CUBESAT             
1 27846U 03031G   09142.96918861  .00000032  00000-0  34952-4 0  4951
2 27846  98.7044 153.4621 0008800 192.3610 167.7347 14.20979865305768
CANX-1                  
1 27847U 03031H   09142.97744572  .00000016  00000-0  27676-4 0  5104
2 27847  98.7049 153.4608 0008867 192.0203 168.0770 14.20962419305713
CUBESAT XI-IV (CO-57)   
1 27848U 03031J   09143.03378672  .00000036  00000-0  37316-4 0  5314
2 27848  98.7147 151.6170 0008988 217.4799 142.5743 14.20440264305652
MOZHAYETS 4 (RS-22)     
1 27939U 03042A   09143.58220388  .00000121  00000-0  32229-4 0  7963
2 27939  97.9498  19.3450 0012702 206.6299 153.4259 14.63317694301979
ECHO (AO-51)            
1 28375U 04025K   09142.68307643  .00000010  00000-0  15777-4 0  3940
2 28375  98.0530 153.7746 0082934 202.2335 157.5248 14.40642243257284
HAMSAT (VO-52)          
1 28650U 05017B   09142.79086636 -.00000101  00000-0 -61991-5 0  2296
2 28650  97.7440 205.2098 0028407 111.7829 248.6425 14.81584430218886
UWE-1                   
1 28892U 05043C   09142.74289814  .00000126  00000-0  35902-4 0  3424
2 28892  98.0585  33.5497 0018423  69.5799 290.7380 14.59736210190131
SSETI EXPRESS (XO-53)   
1 28894U 05043E   09143.32090143  .00000010  00000-0  11597-4 0  4670
2 28894  98.0607  34.3553 0018672  69.0302 291.2892 14.59668223190223
CUBESAT XI-V (CO-58)    
1 28895U 05043F   09143.18229447  .00000329  00000-0  78348-4 0  3080
2 28895  98.0623  34.4944 0019046  68.4588 291.8674 14.59770029190088
NCUBE-2                 
1 28897U 05043H   09143.17477864  .00000109  00000-0  32277-4 0  8553
2 28897  98.0601  34.3982 0018295  68.5657 291.7488 14.59946825182374
CUTE-1.7+APD (CO-56)    
1 28941U 06005C   09143.75706510  .00054108  36251-5  20197-3 0   996
2 28941  98.1358 313.6635 0092756 223.7387 135.6522 15.81473160183381
PEHUENSAT 1             
1 29712U 07001D   09143.75431267  .00000506  00000-0  72707-4 0  5052
2 29712  97.8303 200.7438 0014516 359.9573   0.1628 14.80549054127855
DELFI-C3                
1 32789U 08021G   09143.71290488  .00000267  00000-0  40602-4 0  3744
2 32789  97.9487 207.9425 0016768 109.0864 251.2154 14.81701842 57828
PRISM                   
1 33493U 09002B   09143.77118633  .00000286  00000-0  44232-4 0  4064
2 33493  98.0548 255.8770 0019488 324.1913  35.7996 14.80670432 17850
STARS                   
1 33498U 09002G   09143.78852674  .00000140  00000-0  30721-4 0  3695
2 33498  98.0360 253.8396 0014035  46.5966 313.6408 14.71307322 17722
KKS-1                   
1 33499U 09002H   09143.77097716  .00000063  00000-0  18441-4 0  3760
2 33499  98.0378 253.7210 0011242  44.4230 315.7872 14.70682792 17717
